{
  "type": "FeatureCollection",
  "features": [
    {
      "type": "Feature",
      "properties": {
        "norad_id": 66538,
        "name": "STARLINK-35577",
        "group": "last-30-days",
        "lat": 21.781851986323066,
        "lon": -131.4756909504937,
        "alt_km": 404.91929474573317,
        "timestamp": "2025-12-09T07:41:31.972583+00:00",
        "meta_object_name": "STARLINK-35577",
        "meta_object_id": "2025-265Y",
        "meta_epoch": "2025-12-08T22:00:03.000096",
        "meta_mean_motion": 15.5498418,
        "meta_eccentricity": 0.00017597,
        "meta_inclination": 43.0004,
        "meta_ra_of_asc_node": 76.2922,
        "meta_arg_of_pericenter": 282.6841,
        "meta_mean_anomaly": 122.3868,
        "meta_ephemeris_type": 0,
        "meta_classification_type": "U",
        "meta_norad_cat_id": 66538,
        "meta_element_set_no": 999,
        "meta_rev_at_epoch": 438,
        "meta_bstar": -0.033207921,
        "meta_mean_motion_dot": -0.0203976,
        "meta_mean_motion_ddot": 0,
        "tle_line1": "1 66538U 25265Y   25342.91670139 -.02039760  00000+0 -33208-1 0  9995",
        "tle_line2": "2 66538  43.0004  76.2922 0001759 282.6841 122.3868 15.54984180  4382"
      },
      "geometry": {
        "type": "Point",
        "coordinates": [
          -131.4756909504937,
          21.781851986323066
        ]
      }
    },
    {
      "type": "Feature",
      "properties": {
        "norad_id": 66539,
        "name": "STARLINK-35697",
        "group": "last-30-days",
        "lat": 20.592235628900045,
        "lon": -129.86565341586146,
        "alt_km": 405.05740394158966,
        "timestamp": "2025-12-09T07:41:31.972596+00:00",
        "meta_object_name": "STARLINK-35697",
        "meta_object_id": "2025-265Z",
        "meta_epoch": "2025-12-08T22:00:03.000096",
        "meta_mean_motion": 15.54983672,
        "meta_eccentricity": 0.00017016,
        "meta_inclination": 43.0005,
        "meta_ra_of_asc_node": 76.2872,
        "meta_arg_of_pericenter": 282.8792,
        "meta_mean_anomaly": 124.1109,
        "meta_ephemeris_type": 0,
        "meta_classification_type": "U",
        "meta_norad_cat_id": 66539,
        "meta_element_set_no": 999,
        "meta_rev_at_epoch": 438,
        "meta_bstar": -0.033233959,
        "meta_mean_motion_dot": -0.02041116,
        "meta_mean_motion_ddot": 0,
        "tle_line1": "1 66539U 25265Z   25342.91670139 -.02041116  00000+0 -33234-1 0  9993",
        "tle_line2": "2 66539  43.0005  76.2872 0001701 282.8792 124.1109 15.54983672  4385"
      },
      "geometry": {
        "type": "Point",
        "coordinates": [
          -129.86565341586146,
          20.592235628900045
        ]
      }
    },
    {
      "type": "Feature",
      "properties": {
        "norad_id": 66540,
        "name": "STARLINK-35818",
        "group": "last-30-days",
        "lat": 19.388520340877793,
        "lon": -128.28114163993206,
        "alt_km": 405.2477759353751,
        "timestamp": "2025-12-09T07:41:31.972608+00:00",
        "meta_object_name": "STARLINK-35818",
        "meta_object_id": "2025-265AA",
        "meta_epoch": "2025-12-08T22:00:03.000096",
        "meta_mean_motion": 15.54983945,
        "meta_eccentricity": 0.00017203,
        "meta_inclination": 43.0006,
        "meta_ra_of_asc_node": 76.2827,
        "meta_arg_of_pericenter": 284.0556,
        "meta_mean_anomaly": 124.8509,
        "meta_ephemeris_type": 0,
        "meta_classification_type": "U",
        "meta_norad_cat_id": 66540,
        "meta_element_set_no": 999,
        "meta_rev_at_epoch": 438,
        "meta_bstar": -0.033234442,
        "meta_mean_motion_dot": -0.02041173,
        "meta_mean_motion_ddot": 0,
        "tle_line1": "1 66540U 25265AA  25342.91670139 -.02041173  00000+0 -33234-1 0  9998",
        "tle_line2": "2 66540  43.0006  76.2827 0001720 284.0556 124.8509 15.54983945  4385"
      },
      "geometry": {
        "type": "Point",
        "coordinates": [
          -128.28114163993206,
          19.388520340877793
        ]
      }
    },
    {
      "type": "Feature",
      "properties": {
        "norad_id": 66541,
        "name": "STARLINK-35796",
        "group": "last-30-days",
        "lat": 18.171252014955773,
        "lon": -126.72050774365997,
        "alt_km": 405.39938523091587,
        "timestamp": "2025-12-09T07:41:31.972619+00:00",
        "meta_object_name": "STARLINK-35796",
        "meta_object_id": "2025-265AB",
        "meta_epoch": "2025-12-08T22:00:03.000096",
        "meta_mean_motion": 15.54984367,
        "meta_eccentricity": 0.00017068,
        "meta_inclination": 43.0005,
        "meta_ra_of_asc_node": 76.278,
        "meta_arg_of_pericenter": 283.92,
        "meta_mean_anomaly": 126.9032,
        "meta_ephemeris_type": 0,
        "meta_classification_type": "U",
        "meta_norad_cat_id": 66541,
        "meta_element_set_no": 999,
        "meta_rev_at_epoch": 438,
        "meta_bstar": -0.033247415,
        "meta_mean_motion_dot": -0.02041904,
        "meta_mean_motion_ddot": 0,
        "tle_line1": "1 66541U 25265AB  25342.91670139 -.02041904  00000+0 -33247-1 0  9995",
        "tle_line2": "2 66541  43.0005  76.2780 0001706 283.9200 126.9032 15.54984367  4384"
      },
      "geometry": {
        "type": "Point",
        "coordinates": [
          -126.72050774365997,
          18.171252014955773
        ]
      }
    },
    {
      "type": "Feature",
      "properties": {
        "norad_id": 66542,
        "name": "STARLINK-35833",
        "group": "last-30-days",
        "lat": 16.941451136068455,
        "lon": -125.18150814584824,
        "alt_km": 405.6025562605664,
        "timestamp": "2025-12-09T07:41:31.972631+00:00",
        "meta_object_name": "STARLINK-35833",
        "meta_object_id": "2025-265AC",
        "meta_epoch": "2025-12-08T22:00:03.000096",
        "meta_mean_motion": 15.54984182,
        "meta_eccentricity": 0.00017193,
        "meta_inclination": 43.0004,
        "meta_ra_of_asc_node": 76.2734,
        "meta_arg_of_pericenter": 285.8472,
        "meta_mean_anomaly": 126.8926,
        "meta_ephemeris_type": 0,
        "meta_classification_type": "U",
        "meta_norad_cat_id": 66542,
        "meta_element_set_no": 999,
        "meta_rev_at_epoch": 438,
        "meta_bstar": -0.033243072,
        "meta_mean_motion_dot": -0.02041662,
        "meta_mean_motion_ddot": 0,
        "tle_line1": "1 66542U 25265AC  25342.91670139 -.02041662  00000+0 -33243-1 0  9993",
        "tle_line2": "2 66542  43.0004  76.2734 0001719 285.8472 126.8926 15.54984182  4385"
      },
      "geometry": {
        "type": "Point",
        "coordinates": [
          -125.18150814584824,
          16.941451136068455
        ]
      }
    },
    {
      "type": "Feature",
      "properties": {
        "norad_id": 66543,
        "name": "STARLINK-35315",
        "group": "last-30-days",
        "lat": 15.700342404195128,
        "lon": -123.66337396521428,
        "alt_km": 405.7345445007986,
        "timestamp": "2025-12-09T07:41:31.972666+00:00",
        "meta_object_name": "STARLINK-35315",
        "meta_object_id": "2025-265AD",
        "meta_epoch": "2025-12-08T22:00:03.000096",
        "meta_mean_motion": 15.54984908,
        "meta_eccentricity": 0.00017286,
        "meta_inclination": 43.0005,
        "meta_ra_of_asc_node": 76.2681,
        "meta_arg_of_pericenter": 284.2383,
        "meta_mean_anomaly": 130.4185,
        "meta_ephemeris_type": 0,
        "meta_classification_type": "U",
        "meta_norad_cat_id": 66543,
        "meta_element_set_no": 999,
        "meta_rev_at_epoch": 427,
        "meta_bstar": -0.033254583,
        "meta_mean_motion_dot": -0.02042348,
        "meta_mean_motion_ddot": 0,
        "tle_line1": "1 66543U 25265AD  25342.91670139 -.02042348  00000+0 -33255-1 0  9999",
        "tle_line2": "2 66543  43.0005  76.2681 0001728 284.2383 130.4185 15.54984908  4274"
      },
      "geometry": {
        "type": "Point",
        "coordinates": [
          -123.66337396521428,
          15.700342404195128
        ]
      }
    },
    {
      "type": "Feature",
      "properties": {
        "norad_id": 66544,
        "name": "STARLINK-35728",
        "group": "last-30-days",
        "lat": 14.447977513939952,
        "lon": -122.16217676094378,
        "alt_km": 405.77538930514675,
        "timestamp": "2025-12-09T07:41:31.972678+00:00",
        "meta_object_name": "STARLINK-35728",
        "meta_object_id": "2025-265AE",
        "meta_epoch": "2025-12-08T22:00:03.000096",
        "meta_mean_motion": 15.54986685,
        "meta_eccentricity": 0.00016256,
        "meta_inclination": 43.0006,
        "meta_ra_of_asc_node": 76.2634,
        "meta_arg_of_pericenter": 280.6607,
        "meta_mean_anomaly": 135.9133,
        "meta_ephemeris_type": 0,
        "meta_classification_type": "U",
        "meta_norad_cat_id": 66544,
        "meta_element_set_no": 999,
        "meta_rev_at_epoch": 438,
        "meta_bstar": -0.033291693,
        "meta_mean_motion_dot": -0.02044437,
        "meta_mean_motion_ddot": 0,
        "tle_line1": "1 66544U 25265AE  25342.91670139 -.02044437  00000+0 -33292-1 0  9992",
        "tle_line2": "2 66544  43.0006  76.2634 0001625 280.6607 135.9133 15.54986685  4388"
      },
      "geometry": {
        "type": "Point",
        "coordinates": [
          -122.16217676094378,
          14.447977513939952
        ]
      }
    }
  ]
}